{
  "type": "FeatureCollection",
  "features": [
    {
      "type": "Feature",
      "properties": {
        "norad_id": 29268,
        "name": "ARIRANG-2 (KOMPSAT-2)",
        "group": "resource",
        "lat": -57.62884220418358,
        "lon": -8.27782587015349,
        "alt_km": 678.466354420244,
        "timestamp": "2025-12-22T05:49:03.138776+00:00",
        "meta_object_name": "ARIRANG-2 (KOMPSAT-2)",
        "meta_object_id": "2006-031A",
        "meta_epoch": "2025-12-21T21:02:21.093792",
        "meta_mean_motion": 14.6450215,
        "meta_eccentricity": 0.0013155,
        "meta_inclination": 97.8252,
        "meta_ra_of_asc_node": 183.9039,
        "meta_arg_of_pericenter": 277.7166,
        "meta_mean_anomaly": 193.5716,
        "meta_ephemeris_type": 0,
        "meta_classification_type": "U",
        "meta_norad_cat_id": 29268,
        "meta_element_set_no": 999,
        "meta_rev_at_epoch": 3552,
        "meta_bstar": 0.00012317,
        "meta_mean_motion_dot": 6.08e-06,
        "meta_mean_motion_ddot": 0,
        "tle_line1": "1 29268U 06031A   25355.87663303  .00000608  00000+0  12317-3 0  9993",
        "tle_line2": "2 29268  97.8252 183.9039 0013155 277.7166 193.5716 14.64502150 35521"
      },
      "geometry": {
        "type": "Point",
        "coordinates": [
          -8.27782587015349,
          -57.62884220418358
        ]
      }
    },
    {
      "type": "Feature",
      "properties": {
        "norad_id": 29709,
        "name": "LAPAN-TUBSAT",
        "group": "resource",
        "lat": 2.8736055214104503,
        "lon": 167.00490246922817,
        "alt_km": 620.1877506749388,
        "timestamp": "2025-12-22T05:49:03.138787+00:00",
        "meta_object_name": "LAPAN-TUBSAT",
        "meta_object_id": "2007-001A",
        "meta_epoch": "2025-12-21T20:56:32.913024",
        "meta_mean_motion": 14.85683507,
        "meta_eccentricity": 0.0013358,
        "meta_inclination": 98.1254,
        "meta_ra_of_asc_node": 346.2166,
        "meta_arg_of_pericenter": 47.266,
        "meta_mean_anomaly": 312.9677,
        "meta_ephemeris_type": 0,
        "meta_classification_type": "U",
        "meta_norad_cat_id": 29709,
        "meta_element_set_no": 999,
        "meta_rev_at_epoch": 2482,
        "meta_bstar": 9.3157e-05,
        "meta_mean_motion_dot": 7.51e-06,
        "meta_mean_motion_ddot": 0,
        "tle_line1": "1 29709U 07001A   25355.87260316  .00000751  00000+0  93157-4 0  9999",
        "tle_line2": "2 29709  98.1254 346.2166 0013358  47.2660 312.9677 14.85683507 24829"
      },
      "geometry": {
        "type": "Point",
        "coordinates": [
          167.00490246922817,
          2.8736055214104503
        ]
      }
    },
    {
      "type": "Feature",
      "properties": {
        "norad_id": 31113,
        "name": "HAIYANG-1B",
        "group": "resource",
        "lat": -6.9111717509837325,
        "lon": -18.85391362722667,
        "alt_km": 782.8766941779786,
        "timestamp": "2025-12-22T05:49:03.138798+00:00",
        "meta_object_name": "HAIYANG-1B",
        "meta_object_id": "2007-010A",
        "meta_epoch": "2025-12-21T19:46:52.009248",
        "meta_mean_motion": 14.30967818,
        "meta_eccentricity": 0.0013796,
        "meta_inclination": 98.3323,
        "meta_ra_of_asc_node": 339.7273,
        "meta_arg_of_pericenter": 12.156,
        "meta_mean_anomaly": 347.9954,
        "meta_ephemeris_type": 0,
        "meta_classification_type": "U",
        "meta_norad_cat_id": 31113,
        "meta_element_set_no": 999,
        "meta_rev_at_epoch": 97526,
        "meta_bstar": 4.3332e-05,
        "meta_mean_motion_dot": 7.2e-07,
        "meta_mean_motion_ddot": 0,
        "tle_line1": "1 31113U 07010A   25355.82421307  .00000072  00000+0  43332-4 0  9991",
        "tle_line2": "2 31113  98.3323 339.7273 0013796  12.1560 347.9954 14.30967818975261"
      },
      "geometry": {
        "type": "Point",
        "coordinates": [
          -18.85391362722667,
          -6.9111717509837325
        ]
      }
    },
    {
      "type": "Feature",
      "properties": {
        "norad_id": 31598,
        "name": "COSMO-SKYMED 1",
        "group": "resource",
        "lat": 60.40496369702832,
        "lon": 15.825147416717796,
        "alt_km": 573.1065091826113,
        "timestamp": "2025-12-22T05:49:03.138809+00:00",
        "meta_object_name": "COSMO-SKYMED 1",
        "meta_object_id": "2007-023A",
        "meta_epoch": "2025-12-21T19:39:24.350112",
        "meta_mean_motion": 14.95831009,
        "meta_eccentricity": 0.0001514,
        "meta_inclination": 97.8838,
        "meta_ra_of_asc_node": 181.278,
        "meta_arg_of_pericenter": 81.8695,
        "meta_mean_anomaly": 278.2697,
        "meta_ephemeris_type": 0,
        "meta_classification_type": "U",
        "meta_norad_cat_id": 31598,
        "meta_element_set_no": 999,
        "meta_rev_at_epoch": 326,
        "meta_bstar": 0.00026759,
        "meta_mean_motion_dot": 2.929e-05,
        "meta_mean_motion_ddot": 0,
        "tle_line1": "1 31598U 07023A   25355.81903183  .00002929  00000+0  26759-3 0  9994",
        "tle_line2": "2 31598  97.8838 181.2780 0001514  81.8695 278.2697 14.95831009  3268"
      },
      "geometry": {
        "type": "Point",
        "coordinates": [
          15.825147416717796,
          60.40496369702832
        ]
      }
    },
    {
      "type": "Feature",
      "properties": {
        "norad_id": 31698,
        "name": "TERRASAR-X",
        "group": "resource",
        "lat": -31.52403615162731,
        "lon": 176.88347885539739,
        "alt_km": 515.2118017303937,
        "timestamp": "2025-12-22T05:49:03.138819+00:00",
        "meta_object_name": "TERRASAR-X",
        "meta_object_id": "2007-026A",
        "meta_epoch": "2025-12-21T13:04:48.918432",
        "meta_mean_motion": 15.19155537,
        "meta_eccentricity": 0.0001908,
        "meta_inclination": 97.4453,
        "meta_ra_of_asc_node": 0.797,
        "meta_arg_of_pericenter": 92.2081,
        "meta_mean_anomaly": 267.9372,
        "meta_ephemeris_type": 0,
        "meta_classification_type": "U",
        "meta_norad_cat_id": 31698,
        "meta_element_set_no": 999,
        "meta_rev_at_epoch": 2625,
        "meta_bstar": 3.2984e-05,
        "meta_mean_motion_dot": 6.26e-06,
        "meta_mean_motion_ddot": 0,
        "tle_line1": "1 31698U 07026A   25355.54501063  .00000626  00000+0  32984-4 0  9999",
        "tle_line2": "2 31698  97.4453   0.7970 0001908  92.2081 267.9372 15.19155537 26257"
      },
      "geometry": {
        "type": "Point",
        "coordinates": [
          176.88347885539739,
          -31.52403615162731
        ]
      }
    },
    {
      "type": "Feature",
      "properties": {
        "norad_id": 32060,
        "name": "WORLDVIEW-1 (WV-1)",
        "group": "resource",
        "lat": 35.97099962659807,
        "lon": 108.1867322858455,
        "alt_km": 489.6853564516259,
        "timestamp": "2025-12-22T05:49:03.138830+00:00",
        "meta_object_name": "WORLDVIEW-1 (WV-1)",
        "meta_object_id": "2007-041A",
        "meta_epoch": "2025-12-21T20:12:11.811168",
        "meta_mean_motion": 15.23897101,
        "meta_eccentricity": 0.0003394,
        "meta_inclination": 97.3825,
        "meta_ra_of_asc_node": 113.192,
        "meta_arg_of_pericenter": 6.6748,
        "meta_mean_anomaly": 353.4534,
        "meta_ephemeris_type": 0,
        "meta_classification_type": "U",
        "meta_norad_cat_id": 32060,
        "meta_element_set_no": 999,
        "meta_rev_at_epoch": 1586,
        "meta_bstar": 0.00026614,
        "meta_mean_motion_dot": 6.357e-05,
        "meta_mean_motion_ddot": 0,
        "tle_line1": "1 32060U 07041A   25355.84180337  .00006357  00000+0  26614-3 0  9999",
        "tle_line2": "2 32060  97.3825 113.1920 0003394   6.6748 353.4534 15.23897101 15868"
      },
      "geometry": {
        "type": "Point",
        "coordinates": [
          108.1867322858455,
          35.97099962659807
        ]
      }
    },
    {
      "type": "Feature",
      "properties": {
        "norad_id": 32289,
        "name": "YAOGAN-3",
        "group": "resource",
        "lat": 53.543309302860585,
        "lon": -146.47666876688263,
        "alt_km": 592.7507353709962,
        "timestamp": "2025-12-22T05:49:03.138841+00:00",
        "meta_object_name": "YAOGAN-3",
        "meta_object_id": "2007-055A",
        "meta_epoch": "2025-12-21T21:11:46.934304",
        "meta_mean_motion": 14.89895012,
        "meta_eccentricity": 0.0001082,
        "meta_inclination": 97.8352,
        "meta_ra_of_asc_node": 22.4253,
        "meta_arg_of_pericenter": 77.3437,
        "meta_mean_anomaly": 282.7901,
        "meta_ephemeris_type": 0,
        "meta_classification_type": "U",
        "meta_norad_cat_id": 32289,
        "meta_element_set_no": 999,
        "meta_rev_at_epoch": 97945,
        "meta_bstar": 0.00014911,
        "meta_mean_motion_dot": 1.378e-05,
        "meta_mean_motion_ddot": 0,
        "tle_line1": "1 32289U 07055A   25355.88318211  .00001378  00000+0  14911-3 0  9990",
        "tle_line2": "2 32289  97.8352  22.4253 0001082  77.3437 282.7901 14.89895012979450"
      },
      "geometry": {
        "type": "Point",
        "coordinates": [
          -146.47666876688263,
          53.543309302860585
        ]
      }
    }
  ]
}